CUBEBUG-2 (LO-74)       
1 39440U 13066AA  26196.86496092  .00002083  00000+0  19551-3 0  9990
2 39440  97.8915 145.9709 0055630 293.0759  66.4601 14.93969667681277
FUNCUBE-1 (AO-73)       
1 39444U 13066AE  26196.88912523  .00003677  00000+0  22787-3 0  9993
2 39444  97.8290 168.9436 0037989 105.4335 255.1095 15.09822727683990
UWE-3                   
1 39446U 13066AG  26196.82148462  .00001951  00000+0  17026-3 0  9995
2 39446  97.8715 153.0945 0047549 222.4036 137.3508 14.97201399681861
UNISAT-6                
1 40012U 14033C   26196.90826862  .00001093  00000+0  12211-3 0  9995
2 40012  97.7909 349.1219 0044124 335.3785  24.5325 14.88368094650438
DUCHIFAT-1              
1 40021U 14033M   26196.10651526  .00095423  00000+0  75655-3 0  9991
2 40021  98.0418 259.3300 0002759 247.0602 113.0368 15.70998071660129
QB50P1                  
1 40025U 14033R   26196.94700180  .00004119  00000+0  20221-3 0  9999
2 40025  98.0963 210.1184 0010379 122.3890 237.8348 15.18672539657392
LILACSAT-2              
1 40908U 15049K   26196.90070741  .00012017  00000+0  19843-3 0  9990
2 40908  97.4621 234.8472 0008444 139.4555 220.7328 15.52375847600203
FOX-1A (AO-85)          
1 40967U 15058D   26196.38863535  .00001629  00000+0  15413-3 0  9994
2 40967  64.7725 191.3328 0132381  45.7352 315.4532 14.91088896117770
CAS-2T & KS-1Q          
1 41847U 16066G   26196.77446232  .00000524  00000+0  81899-4 0  9991
2 41847  98.3814 272.1835 0342203  43.0069 319.7332 14.44771111508926
RADFXSAT (FOX-1B)       
1 43017U 17073E   26196.31745535  .00004345  00000+0  19078-3 0  9993
2 43017  97.4665  62.9591 0148269 231.0626 127.7313 15.13061529469642
DIWATA-2B               
1 43678U 18084H   26196.97781205  .00001181  00000+0  98643-4 0  9996
2 43678  98.1211  34.4470 0012806  81.9904 278.2772 15.00565617420537
ES'HAIL 2               
1 43700U 18090A   26196.91862771  .00000134  00000+0  00000+0 0  9993
2 43700   0.0171  51.2917 0002238 107.7137 131.2332  1.00271308 27962
FOX-1CLIFF (AO-95)      
1 43770U 18099N   26196.12445782  .00006428  00000+0  24321-3 0  9999
2 43770  97.4371 256.2762 0007249 240.1261 119.9258 15.27272459417485
ITASAT                  
1 43786U 18099AE  26196.93632576  .00003306  00000+0  15924-3 0  9995
2 43786  97.4011 247.8780 0010910 247.4882 112.5198 15.19387055417276
JY1SAT (JO-97)          
1 43803U 18099AX  26196.73027739  .00011010  00000+0  33119-3 0  9999
2 43803  97.4114 259.6785 0006909 156.5802 203.5757 15.34531069418008
UWE-4                   
1 43880U 18111E   26196.35233479  .00020350  00000+0  39289-3 0  9998
2 43880  97.5850 126.0767 0006288 193.5981 166.5100 15.47824446415136
TIANYAN 01              
1 44881U 19093C   26196.92140182 -.00000215  00000+0 -18251-4 0  9998
2 44881  97.7526 268.4515 0013593 359.2449   0.8744 14.86559571355682
RS-44 & BREEZE-KM R/B   
1 44909U 19096E   26196.85382619  .00000009  00000+0 -14274-4 0  9998
2 44909  82.5242 320.6567 0218527  77.4585 285.0863 12.79748942306016
SALSAT                  
1 46495U 20068K   26196.92204374  .00003996  00000+0  13964-3 0  9991
2 46495  97.8855 201.7454 0009261 190.1996 169.9057 15.30178067319758
XW-3 (CAS-9)            
1 50466U 21131B   26196.93272505  .00000203  00000+0  76176-4 0  9991
2 50466  98.4993 289.1674 0004551  28.5562 331.5875 14.41381827239257
GREENCUBE (IO-117)      
1 53109U 22080E   26196.19885268 -.00000003  00000+0  00000+0 0  9993
2 53109  70.1411 288.5050 0009069 283.3508  76.6141  6.42583355 93867
UMKA 1 (RS40S)          
1 57172U 23091G   26196.90949543  .00003183  00000+0  14591-3 0  9991
2 57172  97.5035 255.4995 0012989  27.2109 332.9805 15.21125624168376
CUBESX-HSE 3 (RS42S)    
1 57178U 23091N   26196.92095702  .00007462  00000+0  24459-3 0  9996
2 57178  97.5077 262.8829 0009583 359.4444   0.6785 15.31894969168826
MONITOR-3 (RS58S)       
1 57180U 23091Q   26196.94470053  .00005512  00000+0  20196-3 0  9995
2 57180  97.5069 260.6103 0010918   7.1256 353.0137 15.28381003168689
MONITOR-4 (RS57S)       
1 57182U 23091S   26196.92215480  .00005810  00000+0  21216-3 0  9991
2 57182  97.5062 260.5603 0010892   7.5793 352.5609 15.28467560168680
MONITOR-2 (RS39S)       
1 57184U 23091U   26196.96738391  .00002554  00000+0  12465-3 0  9996
2 57184  97.5056 255.0662 0011321  21.5116 338.6592 15.19158288168323
SVYATOBOR 1 (RS60S)     
1 57187U 23091X   26196.96076136  .00004692  00000+0  17938-3 0  9996
2 57187  97.5075 260.9436 0008670   1.8237 358.3032 15.27070404168701
VIZARD-METEO (RS38S)    
1 57189U 23091Z   26196.93329469  .00009605  00000+0  26849-3 0  9995
2 57189  97.5079 267.0105 0005591 336.5724  23.5265 15.36888464169103
POLYTECH-UNIVERSE 3 (R*)
1 57191U 23091AB  26196.92479984  .00002532  00000+0  12263-3 0  9992
2 57191  97.5033 254.5281 0016027  35.3431 324.8863 15.19370415168313
UTMN 2 (RS27S)          
1 57203U 23091AP  26196.92306638  .00007249  00000+0  23190-3 0  9992
2 57203  97.5074 264.5537 0006632 347.4858  12.6217 15.32712265168940
