OBJECT_NAME,OBJECT_ID,EPOCH,MEAN_MOTION,ECCENTRICITY,INCLINATION,RA_OF_ASC_NODE,ARG_OF_PERICENTER,MEAN_ANOMALY,EPHEMERIS_TYPE,CLASSIFICATION_TYPE,NORAD_CAT_ID,ELEMENT_SET_NO,REV_AT_EPOCH,BSTAR,MEAN_MOTION_DOT,MEAN_MOTION_DDOT
CUBEBUG-2 (LO-74),2013-066AA,2026-07-15T20:45:32.623488,14.93969667,.00556307,97.8915,145.9709,293.0759,66.4601,0,U,39440,999,68127,.19551178E-3,.2083E-4,0
FUNCUBE-1 (AO-73),2013-066AE,2026-07-15T21:20:20.419872,15.09822727,.00379895,97.8290,168.9436,105.4335,255.1095,0,U,39444,999,68399,.22786592E-3,.3677E-4,0
UWE-3,2013-066AG,2026-07-15T19:42:56.271168,14.97201399,.00475492,97.8715,153.0945,222.4036,137.3508,0,U,39446,999,68186,.1702564E-3,.1951E-4,0
UNISAT-6,2014-033C,2026-07-15T21:47:54.408768,14.88368094,.00441244,97.7909,349.1219,335.3785,24.5325,0,U,40012,999,65043,.12211453E-3,.1093E-4,0
DUCHIFAT-1,2014-033M,2026-07-15T02:33:22.918464,15.70998071,.00027596,98.0418,259.3300,247.0602,113.0368,0,U,40021,999,66012,.75655471E-3,.95423E-3,0
QB50P1,2014-033R,2026-07-15T22:43:40.955520,15.18672539,.00103799,98.0963,210.1184,122.3890,237.8348,0,U,40025,999,65739,.20221405E-3,.4119E-4,0
LILACSAT-2,2015-049K,2026-07-15T21:37:01.120224,15.52375847,.00084443,97.4621,234.8472,139.4555,220.7328,0,U,40908,999,60020,.19842996E-3,.12017E-3,0
FOX-1A (AO-85),2015-058D,2026-07-15T09:19:38.094240,14.91088896,.01323818,64.7725,191.3328,45.7352,315.4532,0,U,40967,999,11777,.15413123E-3,.1629E-4,0
CAS-2T & KS-1Q,2016-066G,2026-07-15T18:35:13.544448,14.44771111,.03422031,98.3814,272.1835,43.0069,319.7332,0,U,41847,999,50892,.81899296E-4,.524E-5,0
RADFXSAT (FOX-1B),2017-073E,2026-07-15T07:37:08.142240,15.13061529,.01482696,97.4665,62.9591,231.0626,127.7313,0,U,43017,999,46964,.1907758E-3,.4345E-4,0
DIWATA-2B,2018-084H,2026-07-15T23:28:02.961120,15.00565617,.00128063,98.1211,34.4470,81.9904,278.2772,0,U,43678,999,42053,.98642767E-4,.1181E-4,0
ES'HAIL 2,2018-090A,2026-07-15T22:02:49.434144,1.00271308,.00022389,0.0171,51.2917,107.7137,131.2332,0,U,43700,999,2796,0,.134E-5,0
FOX-1CLIFF (AO-95),2018-099N,2026-07-15T02:59:13.155648,15.27272459,.00072493,97.4371,256.2762,240.1261,119.9258,0,U,43770,999,41748,.24320994E-3,.6428E-4,0
ITASAT,2018-099AE,2026-07-15T22:28:18.545664,15.19387055,.001091,97.4011,247.8780,247.4882,112.5198,0,U,43786,999,41727,.15924092E-3,.3306E-4,0
JY1SAT (JO-97),2018-099AX,2026-07-15T17:31:35.966496,15.34531069,.00069099,97.4114,259.6785,156.5802,203.5757,0,U,43803,999,41800,.33118672E-3,.1101E-3,0
UWE-4,2018-111E,2026-07-15T08:27:21.725856,15.47824446,.00062889,97.5850,126.0767,193.5981,166.5100,0,U,43880,999,41513,.39288701E-3,.2035E-3,0
TIANYAN 01,2019-093C,2026-07-15T22:06:49.117248,14.86559571,.00135938,97.7526,268.4515,359.2449,0.8744,0,U,44881,999,35568,-.18250913E-4,-.215E-5,0
RS-44 & BREEZE-KM R/B,2019-096E,2026-07-15T20:29:30.582816,12.79748942,.02185279,82.5242,320.6567,77.4585,285.0863,0,U,44909,999,30601,-.14274042E-4,.9E-7,0
SALSAT,2020-068K,2026-07-15T22:07:44.579136,15.30178067,.0009261,97.8855,201.7454,190.1996,169.9057,0,U,46495,999,31975,.13963713E-3,.3996E-4,0
XW-3 (CAS-9),2021-131B,2026-07-15T22:23:07.444320,14.41381827,.0004551,98.4993,289.1674,28.5562,331.5875,0,U,50466,999,23925,.76175615E-4,.203E-5,0
GREENCUBE (IO-117),2022-080E,2026-07-15T04:46:20.871552,6.42583355,.00090693,70.1411,288.5050,283.3508,76.6141,0,U,53109,999,9386,0,-.3E-7,0
UMKA 1 (RS40S),2023-091G,2026-07-15T21:49:40.405152,15.21125624,.00129899,97.5035,255.4995,27.2109,332.9805,0,U,57172,999,16837,.14590829E-3,.3183E-4,0
CUBESX-HSE 3 (RS42S),2023-091N,2026-07-15T22:06:10.686528,15.31894969,.00095837,97.5077,262.8829,359.4444,0.6785,0,U,57178,999,16882,.24459095E-3,.7462E-4,0
MONITOR-3 (RS58S),2023-091Q,2026-07-15T22:40:22.125792,15.28381003,.00109183,97.5069,260.6103,7.1256,353.0137,0,U,57180,999,16868,.20195506E-3,.5512E-4,0
MONITOR-4 (RS57S),2023-091S,2026-07-15T22:07:54.174720,15.28467560,.0010892,97.5062,260.5603,7.5793,352.5609,0,U,57182,999,16868,.21215728E-3,.581E-4,0
MONITOR-2 (RS39S),2023-091U,2026-07-15T23:13:01.969824,15.19158288,.00113219,97.5056,255.0662,21.5116,338.6592,0,U,57184,999,16832,.12465171E-3,.2554E-4,0
SVYATOBOR 1 (RS60S),2023-091X,2026-07-15T23:03:29.781504,15.27070404,.00086708,97.5075,260.9436,1.8237,358.3032,0,U,57187,999,16870,.17938083E-3,.4692E-4,0
VIZARD-METEO (RS38S),2023-091Z,2026-07-15T22:23:56.661216,15.36888464,.00055913,97.5079,267.0105,336.5724,23.5265,0,U,57189,999,16910,.2684925E-3,.9605E-4,0
POLYTECH-UNIVERSE 3 (RS46S),2023-091AB,2026-07-15T22:11:42.706176,15.19370415,.00160278,97.5033,254.5281,35.3431,324.8863,0,U,57191,999,16831,.12263382E-3,.2532E-4,0
UTMN 2 (RS27S),2023-091AP,2026-07-15T22:09:12.935232,15.32712265,.00066321,97.5074,264.5537,347.4858,12.6217,0,U,57203,999,16894,.2319005E-3,.7249E-4,0
